{"fetched_at":"2026-03-29T16:36:15Z","count":15609,"tles":[{"name":"LEMUR-2-KADI","line1":"1 43184U 18014E   26087.77359069  .00135429  00000+0  11976-2 0  9992","line2":"2 43184  97.4640  13.6075 0005144 130.9770 229.1937 15.68205860448375","category":"Other"}]}